{"fetched_at":"2026-03-29T02:12:04Z","count":15717,"tles":[{"name":"TIANHUI 2-02B","line1":"1 49072U 21074B   26086.52192395  .00002058  00000+0  10837-3 0  9990","line2":"2 49072  97.4827  90.8168 0001776  79.9145 280.2289 15.16737374254892","category":"Other"}]}